LUCKY-7                 
1 44406U 19038W   22232.48687341  .00004292  00000+0  22512-3 0  9992
2 44406  97.6429 201.8959 0020485 269.5070  90.3815 15.16134887172661
D-STAR ONE (EXOCONNECT) 
1 44410U 19038AA  22232.48831031  .00011230  00000+0  50423-3 0  9996
2 44410  97.6336 203.5740 0015713 265.2206  94.7234 15.21234872172824
NARSSCUBE-2             
1 44415U 19022E   22232.44253071  .00009204  00000+0  27169-3 0  9991
2 44415  51.6384 167.7091 0009683 289.2009  70.7925 15.35658054169945
DUCHIFAT-3              
1 44854U 19089C   22232.77442440  .00002789  00000+0  21794-3 0  9996
2 44854  36.9646  78.9205 0008414  13.0869  85.9219 15.01420748147600
OPS-SAT                 
1 44878U 19092F   22232.82062094  .00006308  00000+0  28726-3 0  9998
2 44878  97.4818  56.2609 0013516 113.2505 247.0155 15.20959035147972
FLORIPASAT-1            
1 44885U 19093G   22232.70273809  .00001378  00000+0  17458-3 0  9994
2 44885  97.8956 312.4429 0014131 348.9626  11.1286 14.83329591144371
HUSKYSAT-1 (HO-107)     
1 45119U 19071J   22232.83124499  .00017165  00000+0  34132-3 0  9994
2 45119  51.6375 102.4977 0008995  51.8684 308.3113 15.47015033143323
BY70-2                  
1 45857U 20042B   22232.71577302  .00004983  00000+0  65779-3 0  9990
2 45857  97.9536 308.9676 0008768 265.7088  94.3147 14.80460865114965
SALSAT                  
1 46495U 20068K   22232.47200432  .00001603  00000+0  11790-3 0  9997
2 46495  97.7299 173.8097 0017804  63.2018 297.1026 15.04727602103812
NETSAT-4                
1 46504U 20068U   22232.53013842  .00001659  00000+0  12539-3 0  9995
2 46504  97.7275 172.2167 0013339 101.8350 258.4382 15.03694322103675
NETSAT-3                
1 46505U 20068V   22232.54731785  .00001933  00000+0  14550-3 0  9990
2 46505  97.7267 172.1449 0012768 109.3470 250.9147 15.03661867103685
NETSAT-1                
1 46506U 20068W   22232.56611751  .00002446  00000+0  18322-3 0  9994
2 46506  97.7258 172.0873 0010760 122.5539 237.6715 15.03609442103683
NETSAT-2                
1 46507U 20068X   22232.57650596  .00003170  00000+0  23630-3 0  9999
2 46507  97.7254 172.0893 0009842 128.9927 231.2176 15.03588111103637
BY70-3                  
1 46839U 20079N   22232.83878638  .00022973  00000+0  49748-3 0  9997
2 46839  97.1934 304.1829 0007136 103.3882  32.8405 15.44424738100177
UVSQ-SAT                
1 47438U 21006AB  22232.17292611  .00006252  00000+0  32538-3 0  9993
2 47438  97.4326 289.8837 0012975  59.1832 301.0676 15.16309450 86939
SOMP2B                  
1 47445U 21006AJ  22232.38344723  .00005968  00000+0  31398-3 0  9992
2 47445  97.4297 289.7007 0012759  62.4631 297.7897 15.15949100 86955
DIY-1 (ARDUIQUBE)       
1 47963U 21022AH  22231.98027113  .00015372  00000+0  82095-3 0  9991
2 47963  97.5247 132.6552 0013931 274.1693  85.7947 15.15125058 76565
